{
  "links" : {
    "next" : "https://api.nasa.gov/neo/rest/v1/feed?start_date=2007-03-16&end_date=2007-03-16&detailed=true&api_key=t0TVs3DtDT2H8Oy2Zy8m2eVrNsAVKAexjcZXUckd",
    "prev" : "https://api.nasa.gov/neo/rest/v1/feed?start_date=2007-03-14&end_date=2007-03-14&detailed=true&api_key=t0TVs3DtDT2H8Oy2Zy8m2eVrNsAVKAexjcZXUckd",
    "self" : "https://api.nasa.gov/neo/rest/v1/feed?start_date=2007-03-15&end_date=2007-03-15&detailed=true&api_key=t0TVs3DtDT2H8Oy2Zy8m2eVrNsAVKAexjcZXUckd"
  },
  "element_count" : 3,
  "near_earth_objects" : {
    "2007-03-15" : [ {
      "links" : {
        "self" : "https://api.nasa.gov/neo/rest/v1/neo/3372216?api_key=t0TVs3DtDT2H8Oy2Zy8m2eVrNsAVKAexjcZXUckd"
      },
      "neo_reference_id" : "3372216",
      "name" : "(2007 FS3)",
      "nasa_jpl_url" : "http://ssd.jpl.nasa.gov/sbdb.cgi?sstr=3372216",
      "absolute_magnitude_h" : 26.1,
      "estimated_diameter" : {
        "kilometers" : {
          "estimated_diameter_min" : 0.0160160338,
          "estimated_diameter_max" : 0.0358129403
        },
        "meters" : {
          "estimated_diameter_min" : 16.0160337979,
          "estimated_diameter_max" : 35.8129403019
        },
        "miles" : {
          "estimated_diameter_min" : 0.0099518989,
          "estimated_diameter_max" : 0.0222531225
        },
        "feet" : {
          "estimated_diameter_min" : 52.5460443254,
          "estimated_diameter_max" : 117.4965270602
        }
      },
      "is_potentially_hazardous_asteroid" : false,
      "close_approach_data" : [ {
        "close_approach_date" : "2007-03-15",
        "epoch_date_close_approach" : 1173942000000,
        "relative_velocity" : {
          "kilometers_per_second" : "8.2410373199",
          "kilometers_per_hour" : "29667.7343518057",
          "miles_per_hour" : "18434.3763809873"
        },
        "miss_distance" : {
          "astronomical" : "0.0059364627",
          "lunar" : "2.3092839718",
          "kilometers" : "888082.1875",
          "miles" : "551828.6875"
        },
        "orbiting_body" : "Earth"
      } ],
      "orbital_data" : {
        "orbit_id" : "6",
        "orbit_determination_date" : "2017-04-06 09:06:39",
        "orbit_uncertainty" : "8",
        "minimum_orbit_intersection" : ".00555895",
        "jupiter_tisserand_invariant" : "4.280",
        "epoch_osculation" : "2454180.5",
        "eccentricity" : ".4183047507687172",
        "semi_major_axis" : "1.587066569480104",
        "inclination" : "3.223083662714971",
        "ascending_node_longitude" : "179.6505663577251",
        "orbital_period" : "730.2829181357976",
        "perihelion_distance" : ".9231890836803661",
        "perihelion_argument" : "313.3103732463302",
        "aphelion_distance" : "2.250944055279842",
        "perihelion_time" : "2454142.105460813011",
        "mean_anomaly" : "18.92695798307829",
        "mean_motion" : ".4929596339443028",
        "equinox" : "J2000"
      }
    }, {
      "links" : {
        "self" : "https://api.nasa.gov/neo/rest/v1/neo/3368738?api_key=t0TVs3DtDT2H8Oy2Zy8m2eVrNsAVKAexjcZXUckd"
      },
      "neo_reference_id" : "3368738",
      "name" : "(2007 DK8)",
      "nasa_jpl_url" : "http://ssd.jpl.nasa.gov/sbdb.cgi?sstr=3368738",
      "absolute_magnitude_h" : 19.0,
      "estimated_diameter" : {
        "kilometers" : {
          "estimated_diameter_min" : 0.4212646106,
          "estimated_diameter_max" : 0.9419763057
        },
        "meters" : {
          "estimated_diameter_min" : 421.2646105562,
          "estimated_diameter_max" : 941.9763057186
        },
        "miles" : {
          "estimated_diameter_min" : 0.2617616123,
          "estimated_diameter_max" : 0.5853167591
        },
        "feet" : {
          "estimated_diameter_min" : 1382.1017848971,
          "estimated_diameter_max" : 3090.4735428537
        }
      },
      "is_potentially_hazardous_asteroid" : false,
      "close_approach_data" : [ {
        "close_approach_date" : "2007-03-15",
        "epoch_date_close_approach" : 1173942000000,
        "relative_velocity" : {
          "kilometers_per_second" : "17.9504470031",
          "kilometers_per_hour" : "64621.609211151",
          "miles_per_hour" : "40153.3549012288"
        },
        "miss_distance" : {
          "astronomical" : "0.3453944824",
          "lunar" : "134.3584594727",
          "kilometers" : "51670280",
          "miles" : "32106424"
        },
        "orbiting_body" : "Earth"
      } ],
      "orbital_data" : {
        "orbit_id" : "48",
        "orbit_determination_date" : "2017-04-06 09:06:57",
        "orbit_uncertainty" : "1",
        "minimum_orbit_intersection" : ".20947",
        "jupiter_tisserand_invariant" : "4.015",
        "epoch_osculation" : "2458000.5",
        "eccentricity" : ".419204973954198",
        "semi_major_axis" : "1.649810397761378",
        "inclination" : "32.57862328963683",
        "ascending_node_longitude" : "155.1178697667603",
        "orbital_period" : "774.0151858308975",
        "perihelion_distance" : ".9582016729384542",
        "perihelion_argument" : "99.02645729117737",
        "aphelion_distance" : "2.341419122584301",
        "perihelion_time" : "2458124.549498253231",
        "mean_anomaly" : "302.303690949909",
        "mean_motion" : ".4651071536969182",
        "equinox" : "J2000"
      }
    }, {
      "links" : {
        "self" : "https://api.nasa.gov/neo/rest/v1/neo/3372213?api_key=t0TVs3DtDT2H8Oy2Zy8m2eVrNsAVKAexjcZXUckd"
      },
      "neo_reference_id" : "3372213",
      "name" : "(2007 FP3)",
      "nasa_jpl_url" : "http://ssd.jpl.nasa.gov/sbdb.cgi?sstr=3372213",
      "absolute_magnitude_h" : 28.4,
      "estimated_diameter" : {
        "kilometers" : {
          "estimated_diameter_min" : 0.0055533491,
          "estimated_diameter_max" : 0.0124176661
        },
        "meters" : {
          "estimated_diameter_min" : 5.5533491158,
          "estimated_diameter_max" : 12.4176661257
        },
        "miles" : {
          "estimated_diameter_min" : 0.0034506901,
          "estimated_diameter_max" : 0.0077159776
        },
        "feet" : {
          "estimated_diameter_min" : 18.2196499131,
          "estimated_diameter_max" : 40.740375732
        }
      },
      "is_potentially_hazardous_asteroid" : false,
      "close_approach_data" : [ {
        "close_approach_date" : "2007-03-15",
        "epoch_date_close_approach" : 1173942000000,
        "relative_velocity" : {
          "kilometers_per_second" : "9.9211134304",
          "kilometers_per_hour" : "35716.0083493117",
          "miles_per_hour" : "22192.5386323821"
        },
        "miss_distance" : {
          "astronomical" : "0.0087343539",
          "lunar" : "3.3976635933",
          "kilometers" : "1306640.75",
          "miles" : "811908.9375"
        },
        "orbiting_body" : "Earth"
      } ],
      "orbital_data" : {
        "orbit_id" : "6",
        "orbit_determination_date" : "2017-04-06 09:06:39",
        "orbit_uncertainty" : "8",
        "minimum_orbit_intersection" : ".000107058",
        "jupiter_tisserand_invariant" : "4.635",
        "epoch_osculation" : "2454180.5",
        "eccentricity" : ".4035111934302847",
        "semi_major_axis" : "1.413312293649398",
        "inclination" : ".2374172016251402",
        "ascending_node_longitude" : "352.4363137366966",
        "orbital_period" : "613.6993055925636",
        "perihelion_distance" : ".8430249633492365",
        "perihelion_argument" : "119.5531541802306",
        "aphelion_distance" : "1.983599623949559",
        "perihelion_time" : "2454128.922513147583",
        "mean_anomaly" : "30.25568889790693",
        "mean_motion" : ".5866064972199998",
        "equinox" : "J2000"
      }
    } ]
  }
}